{
    "links": {
        "self": "http://www.neowsapp.com/rest/v1/neo/3736206?api_key=iIulBulltgU6a56xZRHN4H3l9WmuAYTsLGpBGhQ2"
    },
    "id": "3736206",
    "neo_reference_id": "3736206",
    "name": "(2015 XW128)",
    "designation": "2015 XW128",
    "nasa_jpl_url": "http://ssd.jpl.nasa.gov/sbdb.cgi?sstr=3736206",
    "absolute_magnitude_h": 19.9,
    "estimated_diameter": {
        "kilometers": {
            "estimated_diameter_min": 0.2783267681,
            "estimated_diameter_max": 0.6223575734
        },
        "meters": {
            "estimated_diameter_min": 278.3267680719,
            "estimated_diameter_max": 622.3575733667
        },
        "miles": {
            "estimated_diameter_min": 0.1729441822,
            "estimated_diameter_max": 0.3867149477
        },
        "feet": {
            "estimated_diameter_min": 913.1455937611,
            "estimated_diameter_max": 2041.8556210042
        }
    },
    "is_potentially_hazardous_asteroid": false,
    "close_approach_data": [
        {
            "close_approach_date": "2015-07-01",
            "close_approach_date_full": "2015-Jul-01 15:13",
            "epoch_date_close_approach": 1435763580000,
            "relative_velocity": {
                "kilometers_per_second": "11.0637213294",
                "kilometers_per_hour": "39829.3967860189",
                "miles_per_hour": "24748.438241846"
            },
            "miss_distance": {
                "astronomical": "0.4640611803",
                "lunar": "180.5197991367",
                "kilometers": "69422564.122565961",
                "miles": "43137181.0480978218"
            },
            "orbiting_body": "Earth"
        }
    ],
    "orbital_data": {
        "orbit_id": "7",
        "orbit_determination_date": "2017-04-06 08:30:08",
        "first_observation_date": "2015-12-04",
        "last_observation_date": "2016-01-05",
        "data_arc_in_days": 32,
        "observations_used": 32,
        "orbit_uncertainty": "7",
        "minimum_orbit_intersection": ".38335",
        "jupiter_tisserand_invariant": "3.924",
        "epoch_osculation": "2459000.5",
        "eccentricity": ".3464256059105699",
        "semi_major_axis": "1.78727325598469",
        "inclination": "22.9480462649955",
        "ascending_node_longitude": "69.96311473842844",
        "orbital_period": "872.7399613967685",
        "perihelion_distance": "1.168116035352437",
        "perihelion_argument": "276.3251171852993",
        "aphelion_distance": "2.406430476616944",
        "perihelion_time": "2459041.088354874215",
        "mean_anomaly": "343.2575470345921",
        "mean_motion": ".4124940027082539",
        "equinox": "J2000",
        "orbit_class": {
            "orbit_class_type": "AMO",
            "orbit_class_description": "Near-Earth asteroid orbits similar to that of 1221 Amor",
            "orbit_class_range": "1.017 AU < q (perihelion) < 1.3 AU"
        }
    },
    "is_sentry_object": false
}